ONEWEB-0527             
1 54642U 22166A   25331.89397446 -.00000004  00000+0 -41986-4 0  9999
2 54642  87.9203 284.1498 0001898  78.4210 281.7137 13.21826069144945
ONEWEB-0528             
1 54643U 22166B   25332.12766108  .00000073  00000+0  14515-3 0  9993
2 54643  87.9204 284.1071 0001938  78.9395 281.1957 13.21827009144981
ONEWEB-0539             
1 54644U 22166C   25332.16550470 -.00000061  00000+0 -17925-3 0  9998
2 54644  87.9206 284.0654 0001959  86.2510 273.8848 13.21824907144985
ONEWEB-0540             
1 54645U 22166D   25332.17220586  .00001196  00000+0  28635-2 0  9999
2 54645  87.9207 284.1017 0001984  84.0557 276.0803 13.21837493144975
ONEWEB-0542             
1 54646U 22166E   25332.09965951  .00000130  00000+0  28425-3 0  9998
2 54646  87.9201 284.0754 0001845  92.9178 267.2167 13.21829837144978
ONEWEB-0545             
1 54647U 22166F   25331.91371900  .00000039  00000+0  62913-4 0  9993
2 54647  87.9201 284.1325 0001964  95.0184 265.1174 13.21827783144914
ONEWEB-0580             
1 54648U 22166G   25332.11448554  .00000054  00000+0  99190-4 0  9991
2 54648  87.9204 284.0916 0001691  90.7036 269.4292 13.21824375144987
ONEWEB-0582             
1 54649U 22166H   25332.15726477 -.00000021  00000+0 -83160-4 0  9995
2 54649  87.9205 284.0759 0001695  96.2782 263.8545 13.21824526144962
ONEWEB-0583             
1 54650U 22166J   25332.16878301 -.00000036  00000+0 -11966-3 0  9992
2 54650  87.9208 284.0984 0001911  83.8479 276.2872 13.21823821144972
ONEWEB-0584             
1 54651U 22166K   25332.11282824  .00000095  00000+0  19926-3 0  9994
2 54651  87.9206 284.0958 0001612  89.6096 270.5223 13.21828855144956
ONEWEB-0585             
1 54652U 22166L   25332.13753465  .00000097  00000+0  20389-3 0  9998
2 54652  87.9204 284.0754 0001905  77.0882 283.0465 13.21826283144969
ONEWEB-0586             
1 54653U 22166M   25332.15069448  .00000056  00000+0  10305-3 0  9994
2 54653  87.9203 284.0984 0001831  85.5284 274.6059 13.21823801144960
ONEWEB-0587             
1 54654U 22166N   25331.85777933  .00000008  00000+0 -11274-4 0  9991
2 54654  87.9212 284.1113 0001990  68.6407 291.4939 13.21823900145089
ONEWEB-0589             
1 54655U 22166P   25332.14740882  .00000099  00000+0  20915-3 0  9998
2 54655  87.9200 284.0898 0001424 107.7998 252.3292 13.21825275144981
ONEWEB-0590             
1 54656U 22166Q   25332.17193317  .00000038  00000+0  61472-4 0  9994
2 54656  87.9206 284.0617 0001533  72.0310 288.0991 13.21824000144976
ONEWEB-0591             
1 54657U 22166R   25332.10789670  .00000092  00000+0  19023-3 0  9995
2 54657  87.9205 284.0981 0001764  81.0184 279.1149 13.21828736144993
ONEWEB-0592             
1 54658U 22166S   25332.11118434  .00000076  00000+0  15269-3 0  9991
2 54658  87.9213 284.0591 0001796  81.9411 278.1927 13.21823572144870
